{
  "type": "FeatureCollection",
  "features": [
    {
      "type": "Feature",
      "properties": {
        "norad_id": 31307,
        "name": "GALAXY 17 (G-17)",
        "group": "intelsat",
        "lat": -0.26724472652107706,
        "lon": 75.5365495974924,
        "alt_km": 35809.56017858848,
        "timestamp": "2025-12-17T04:57:44.067481+00:00",
        "meta_object_name": "GALAXY 17 (G-17)",
        "meta_object_id": "2007-016B",
        "meta_epoch": "2025-12-16T09:31:44.853024",
        "meta_mean_motion": 1.00272119,
        "meta_eccentricity": 0.00055712,
        "meta_inclination": 2.5091,
        "meta_ra_of_asc_node": 82.2451,
        "meta_arg_of_pericenter": 167.3136,
        "meta_mean_anomaly": 253.6918,
        "meta_ephemeris_type": 0,
        "meta_classification_type": "U",
        "meta_norad_cat_id": 31307,
        "meta_element_set_no": 999,
        "meta_rev_at_epoch": 6797,
        "meta_bstar": 0,
        "meta_mean_motion_dot": -1.85e-06,
        "meta_mean_motion_ddot": 0,
        "tle_line1": "1 31307U 07016B   25350.39704691 -.00000185  00000+0  00000+0 0  9995",
        "tle_line2": "2 31307   2.5091  82.2451 0005571 167.3136 253.6918  1.00272119 67976"
      },
      "geometry": {
        "type": "Point",
        "coordinates": [
          75.5365495974924,
          -0.26724472652107706
        ]
      }
    },
    {
      "type": "Feature",
      "properties": {
        "norad_id": 31862,
        "name": "DIRECTV 10",
        "group": "intelsat",
        "lat": 0.010260903640020717,
        "lon": 57.706169760087704,
        "alt_km": 35788.072504043914,
        "timestamp": "2025-12-17T04:57:44.067492+00:00",
        "meta_object_name": "DIRECTV 10",
        "meta_object_id": "2007-032A",
        "meta_epoch": "2025-12-16T16:17:29.205600",
        "meta_mean_motion": 1.00269493,
        "meta_eccentricity": 3.773e-05,
        "meta_inclination": 0.0087,
        "meta_ra_of_asc_node": 63.5062,
        "meta_arg_of_pericenter": 141.6463,
        "meta_mean_anomaly": 21.99,
        "meta_ephemeris_type": 0,
        "meta_classification_type": "U",
        "meta_norad_cat_id": 31862,
        "meta_element_set_no": 999,
        "meta_rev_at_epoch": 4376,
        "meta_bstar": 0,
        "meta_mean_motion_dot": -7.9e-07,
        "meta_mean_motion_ddot": 0,
        "tle_line1": "1 31862U 07032A   25350.67881025 -.00000079  00000+0  00000+0 0  9999",
        "tle_line2": "2 31862   0.0087  63.5062 0000377 141.6463  21.9900  1.00269493 43766"
      },
      "geometry": {
        "type": "Point",
        "coordinates": [
          57.706169760087704,
          0.010260903640020717
        ]
      }
    },
    {
      "type": "Feature",
      "properties": {
        "norad_id": 32253,
        "name": "INTELSAT 11 (IS-11)",
        "group": "intelsat",
        "lat": -2.967420068573328,
        "lon": 6.643053599536248,
        "alt_km": 36149.61505378516,
        "timestamp": "2025-12-17T04:57:44.067503+00:00",
        "meta_object_name": "INTELSAT 11 (IS-11)",
        "meta_object_id": "2007-044B",
        "meta_epoch": "2025-12-16T16:03:36.807264",
        "meta_mean_motion": 0.9905059,
        "meta_eccentricity": 0.00086333,
        "meta_inclination": 3.0901,
        "meta_ra_of_asc_node": 80.9335,
        "meta_arg_of_pericenter": 167.4492,
        "meta_mean_anomaly": 286.4611,
        "meta_ephemeris_type": 0,
        "meta_classification_type": "U",
        "meta_norad_cat_id": 32253,
        "meta_element_set_no": 999,
        "meta_rev_at_epoch": 6664,
        "meta_bstar": 0,
        "meta_mean_motion_dot": 3.4e-07,
        "meta_mean_motion_ddot": 0,
        "tle_line1": "1 32253U 07044B   25350.66917601  .00000034  00000+0  00000+0 0  9996",
        "tle_line2": "2 32253   3.0901  80.9335 0008633 167.4492 286.4611  0.99050590 66648"
      },
      "geometry": {
        "type": "Point",
        "coordinates": [
          6.643053599536248,
          -2.967420068573328
        ]
      }
    },
    {
      "type": "Feature",
      "properties": {
        "norad_id": 32388,
        "name": "HORIZONS-2",
        "group": "intelsat",
        "lat": 0.16712403955838795,
        "lon": 86.72523081777122,
        "alt_km": 35805.02756235014,
        "timestamp": "2025-12-17T04:57:44.067514+00:00",
        "meta_object_name": "HORIZONS-2",
        "meta_object_id": "2007-063B",
        "meta_epoch": "2025-12-16T09:34:52.054176",
        "meta_mean_motion": 1.00273259,
        "meta_eccentricity": 0.00045866,
        "meta_inclination": 2.1307,
        "meta_ra_of_asc_node": 82.925,
        "meta_arg_of_pericenter": 190.3624,
        "meta_mean_anomaly": 241.9276,
        "meta_ephemeris_type": 0,
        "meta_classification_type": "U",
        "meta_norad_cat_id": 32388,
        "meta_element_set_no": 999,
        "meta_rev_at_epoch": 6598,
        "meta_bstar": 0,
        "meta_mean_motion_dot": -2.31e-06,
        "meta_mean_motion_ddot": 0,
        "tle_line1": "1 32388U 07063B   25350.39921359 -.00000231  00000+0  00000+0 0  9991",
        "tle_line2": "2 32388   2.1307  82.9250 0004586 190.3624 241.9276  1.00273259 65981"
      },
      "geometry": {
        "type": "Point",
        "coordinates": [
          86.72523081777122,
          0.16712403955838795
        ]
      }
    },
    {
      "type": "Feature",
      "properties": {
        "norad_id": 32729,
        "name": "DIRECTV 11",
        "group": "intelsat",
        "lat": 0.011460791367855157,
        "lon": 61.31835168592725,
        "alt_km": 35786.99810755986,
        "timestamp": "2025-12-17T04:57:44.067524+00:00",
        "meta_object_name": "DIRECTV 11",
        "meta_object_id": "2008-013A",
        "meta_epoch": "2025-12-16T14:35:52.709280",
        "meta_mean_motion": 1.00271168,
        "meta_eccentricity": 5.824e-05,
        "meta_inclination": 0.0329,
        "meta_ra_of_asc_node": 197.6068,
        "meta_arg_of_pericenter": 331.0822,
        "meta_mean_anomaly": 36.5951,
        "meta_ephemeris_type": 0,
        "meta_classification_type": "U",
        "meta_norad_cat_id": 32729,
        "meta_element_set_no": 999,
        "meta_rev_at_epoch": 4376,
        "meta_bstar": 0,
        "meta_mean_motion_dot": -1.02e-06,
        "meta_mean_motion_ddot": 0,
        "tle_line1": "1 32729U 08013A   25350.60824895 -.00000102  00000+0  00000+0 0  9994",
        "tle_line2": "2 32729   0.0329 197.6068 0000582 331.0822  36.5951  1.00271168 43765"
      },
      "geometry": {
        "type": "Point",
        "coordinates": [
          61.31835168592725,
          0.011460791367855157
        ]
      }
    },
    {
      "type": "Feature",
      "properties": {
        "norad_id": 32951,
        "name": "GALAXY 18 (G-18)",
        "group": "intelsat",
        "lat": 0.0010076205132171748,
        "lon": 37.534669917253176,
        "alt_km": 35792.31191849419,
        "timestamp": "2025-12-17T04:57:44.067535+00:00",
        "meta_object_name": "GALAXY 18 (G-18)",
        "meta_object_id": "2008-024A",
        "meta_epoch": "2025-12-16T16:11:44.755584",
        "meta_mean_motion": 1.00272775,
        "meta_eccentricity": 0.00028214,
        "meta_inclination": 0.0058,
        "meta_ra_of_asc_node": 83.6904,
        "meta_arg_of_pericenter": 190.776,
        "meta_mean_anomaly": 291.0296,
        "meta_ephemeris_type": 0,
        "meta_classification_type": "U",
        "meta_norad_cat_id": 32951,
        "meta_element_set_no": 999,
        "meta_rev_at_epoch": 4402,
        "meta_bstar": 0,
        "meta_mean_motion_dot": 4.9e-07,
        "meta_mean_motion_ddot": 0,
        "tle_line1": "1 32951U 08024A   25350.67482356  .00000049  00000+0  00000+0 0  9991",
        "tle_line2": "2 32951   0.0058  83.6904 0002821 190.7760 291.0296  1.00272775 44028"
      },
      "geometry": {
        "type": "Point",
        "coordinates": [
          37.534669917253176,
          0.0010076205132171748
        ]
      }
    },
    {
      "type": "Feature",
      "properties": {
        "norad_id": 33153,
        "name": "INTELSAT 25 (IS-25)",
        "group": "intelsat",
        "lat": 1.6355951664785884,
        "lon": 128.95434181184586,
        "alt_km": 35801.20871518853,
        "timestamp": "2025-12-17T04:57:44.067546+00:00",
        "meta_object_name": "INTELSAT 25 (IS-25)",
        "meta_object_id": "2008-034A",
        "meta_epoch": "2025-12-16T22:03:05.126112",
        "meta_mean_motion": 1.00271082,
        "meta_eccentricity": 0.00048335,
        "meta_inclination": 2.238,
        "meta_ra_of_asc_node": 82.6054,
        "meta_arg_of_pericenter": 184.0182,
        "meta_mean_anomaly": 118.4537,
        "meta_ephemeris_type": 0,
        "meta_classification_type": "U",
        "meta_norad_cat_id": 33153,
        "meta_element_set_no": 999,
        "meta_rev_at_epoch": 6386,
        "meta_bstar": 0,
        "meta_mean_motion_dot": -2.01e-06,
        "meta_mean_motion_ddot": 0,
        "tle_line1": "1 33153U 08034A   25350.91880933 -.00000201  00000+0  00000+0 0  9998",
        "tle_line2": "2 33153   2.2380  82.6054 0004833 184.0182 118.4537  1.00271082 63862"
      },
      "geometry": {
        "type": "Point",
        "coordinates": [
          128.95434181184586,
          1.6355951664785884
        ]
      }
    }
  ]
}